ORBCOMM FM103 [+]       
1 40091U 14040F   24099.87330195  .00000857  00000+0  22846-3 0  9997
2 40091  47.0049 266.2177 0001277  96.6087 263.4943 14.56444304517812
ORBCOMM FM114 [+]       
1 41179U 15081A   24099.90726532  .00000968  00000+0  25320-3 0  9992
2 41179  47.0020 175.3520 0001487 191.3118 168.7734 14.56459099441179
ORBCOMM FM119 [-]       
1 41180U 15081B   24099.67092074  .00000756  00000+0  20610-3 0  9997
2 41180  47.0006  85.6508 0001885 246.1430 113.9257 14.56430178442341
ORBCOMM FM105 [-]       
1 41181U 15081C   24099.93152442  .00000398  00000+0  16005-3 0  9998
2 41181  47.0025  48.4581 0001660 200.3759 159.7055 14.44306884437956
ORBCOMM FM110 [+]       
1 41182U 15081D   24100.50180627  .00001002  00000+0  26080-3 0  9998
2 41182  47.0009 171.9621 0002315 311.8173  48.2514 14.56460864441265
ORBCOMM FM118 [+]       
1 41183U 15081E   24099.93021985  .00001037  00000+0  26855-3 0  9992
2 41183  47.0031 174.9525 0002489 308.7199  51.3463 14.56459291441183
ORBCOMM FM112 [+]       
1 41184U 15081F   24099.99178114  .00000697  00000+0  19279-3 0  9999
2 41184  46.9990  83.3672 0001392 242.2023 117.8720 14.56441859442380
ORBCOMM FM113 [+]       
1 41185U 15081G   24100.24327222  .00000898  00000+0  23764-3 0  9994
2 41185  47.0009  82.4432 0001476 262.0383  98.0334 14.56441572442428
